[{"OBJECT_NAME":"STARLINK-36192","OBJECT_ID":"2025-293X","EPOCH":"2026-03-09T11:16:31.149408","MEAN_MOTION":14.98335756,"ECCENTRICITY":0.00029021,"INCLINATION":70.0008,"RA_OF_ASC_NODE":95.0593,"ARG_OF_PERICENTER":267.4893,"MEAN_ANOMALY":92.5933,"EPHEMERIS_TYPE":0,"CLASSIFICATION_TYPE":"U","NORAD_CAT_ID":67024,"ELEMENT_SET_NO":999,"REV_AT_EPOCH":1485,"BSTAR":0.00021542102,"MEAN_MOTION_DOT":2.479e-5,"MEAN_MOTION_DDOT":0},{"OBJECT_NAME":"FENGYUN 1C DEB","OBJECT_ID":"1999-025BTY","EPOCH":"2026-03-09T14:49:03.533664","MEAN_MOTION":15.05418076,"ECCENTRICITY":0.0035944,"INCLINATION":98.8793,"RA_OF_ASC_NODE":298.6402,"ARG_OF_PERICENTER":319.4464,"MEAN_ANOMALY":105.3063,"EPHEMERIS_TYPE":0,"CLASSIFICATION_TYPE":"U","NORAD_CAT_ID":31436,"ELEMENT_SET_NO":999,"REV_AT_EPOCH":98178,"BSTAR":0.0045436,"MEAN_MOTION_DOT":0.00066638,"MEAN_MOTION_DDOT":0}]
